[{"OBJECT_NAME":"ONEWEB-0330","OBJECT_ID":"2021-075AK","EPOCH":"2026-03-08T20:55:25.864032","MEAN_MOTION":13.1717637,"ECCENTRICITY":0.00020924,"INCLINATION":87.9122,"RA_OF_ASC_NODE":25.7983,"ARG_OF_PERICENTER":57.8554,"MEAN_ANOMALY":302.278,"EPHEMERIS_TYPE":0,"CLASSIFICATION_TYPE":"U","NORAD_CAT_ID":49108,"ELEMENT_SET_NO":999,"REV_AT_EPOCH":22041,"BSTAR":-0.11986739,"MEAN_MOTION_DOT":-0.00045973,"MEAN_MOTION_DDOT":0},{"OBJECT_NAME":"DELTA 1 DEB","OBJECT_ID":"1975-052LY","EPOCH":"2026-03-09T09:11:27.158208","MEAN_MOTION":13.31678023,"ECCENTRICITY":0.00702073,"INCLINATION":99.693,"RA_OF_ASC_NODE":255.1117,"ARG_OF_PERICENTER":268.4263,"MEAN_ANOMALY":211.2195,"EPHEMERIS_TYPE":0,"CLASSIFICATION_TYPE":"U","NORAD_CAT_ID":42639,"ELEMENT_SET_NO":999,"REV_AT_EPOCH":59752,"BSTAR":0.0001782332,"MEAN_MOTION_DOT":4.5e-7,"MEAN_MOTION_DDOT":0}]
